ONEWEB-0055             
1 45443U 20020V   21098.28670735  .00000482  00000-0  13238-2 0  9995
2 45443  87.8942  37.9326 0001850  76.8064 283.3271 13.11414026 54126
ONEWEB-0093             
1 45444U 20020W   21097.86628454 -.00000355  00000-0 -10385-2 0  9991
2 45444  87.8934  38.0721 0002158  81.0085 279.1287 13.11418803 54130
ONEWEB-0029             
1 45445U 20020X   21098.13255600  .00000537  00000-0  14798-2 0  9994
2 45445  87.8936  38.0018 0001882  81.0662 279.0679 13.11415684 54145
ONEWEB-0068             
1 45446U 20020Y   21098.77561964 -.00000551  00000-0 -15897-2 0  9997
2 45446  87.8936  37.8911 0002174  62.2831 297.8517 13.11416455 54189
ONEWEB-0046             
1 45447U 20020Z   21098.84879975 -.00000448  00000-0 -12992-2 0  9998
2 45447  87.8936  37.8806 0002131  78.1314 282.0053 13.11411772 54209
ONEWEB-0063             
1 45448U 20020AA  21098.81611558  .00000499  00000-0  13722-2 0  9993
2 45448  87.8929  37.9030 0002590  75.1894 284.9521 13.11416987 54272
ONEWEB-0019             
1 45449U 20020AB  21098.31939264 -.00000495  00000-0 -14331-2 0  9991
2 45449  87.8939  37.9573 0001895  80.7779 279.3563 13.11418888 54059
ONEWEB-0094             
1 45450U 20020AC  21097.82492596 -.00394205  00000-0 -69433+0 0  9995
2 45450  87.9232  22.8847 0028693  23.6737 336.5723 13.45128515 56531
ONEWEB-0087             
1 45451U 20020AD  21098.28826598  .00000486  00000-0  13356-2 0  9999
2 45451  87.8939  37.9921 0001858  80.6979 279.4359 13.11416502 54098
ONEWEB-0082             
1 45452U 20020AE  21098.21352089  .00000304  00000-0  82082-3 0  9994
2 45452  87.8931  37.9736 0001932  71.8269 288.3070 13.11414286 54177
ONEWEB-0050             
1 45453U 20020AF  21098.26960596  .00000517  00000-0  44482-4 0  9997
2 45453  87.5480  17.6043 0026063 358.7381   1.3779 14.94917744 57265
ONEWEB-0034             
1 45454U 20020AG  21098.30226778 -.00000094  00000-0 -29980-3 0  9997
2 45454  87.8932  37.9797 0002198  78.3955 281.7420 13.11412687 54108
ONEWEB-0060             
1 45455U 20020AH  21098.84255834 -.00005852  00000-0 -16553-1 0  9999
2 45455  87.8937  37.8653 0001944  76.0376 284.0968 13.11440040 54145
ONEWEB-0086             
1 45456U 20020AJ  21098.78029171 -.00000529  00000-0 -15277-2 0  9995
2 45456  87.8935  37.8755 0002130  76.2189 283.9176 13.11418966 54184
ONEWEB-0088             
1 45457U 20020AK  21098.83790019 -.00000119  00000-0 -37036-3 0  9991
2 45457  87.8930  37.8981 0002208  77.7297 282.4078 13.11415567 54137
ONEWEB-0102             
1 47258U 20100A   21098.91667824 -.00039499  00000-0 -85987-1 0  9996
2 47258  87.9611   7.5887 0001407  93.2012 228.4745 13.29256106 16097
ONEWEB-0109             
1 47259U 20100B   21098.91667824  .00000013  00000-0  00000+0 0  9996
2 47259  87.9355   7.4372 0001770 108.2120 328.7592 13.30796089 15949
ONEWEB-0110             
1 47260U 20100C   21098.50001157 -.00000745  00000-0 -16546-2 0  9993
2 47260  87.9621   7.5252 0000651  46.7926 144.6065 13.28750431  1721
ONEWEB-0111             
1 47261U 20100D   21098.50001157 -.00000930  00000-0 -20627-2 0  9995
2 47261  87.9624   7.5215 0001495  73.5134 289.0070 13.28607910  1734
ONEWEB-0114             
1 47262U 20100E   21098.91667824 -.00039850  00000-0 -95105-1 0  9995
2 47262  87.9362   7.4280 0001311  82.7451 204.9845 13.23115988 15911
ONEWEB-0117             
1 47263U 20100F   21098.91667824  .00000013  00000-0  00000+0 0  9991
2 47263  87.9498   7.4978 0001370  74.9886  69.8767 13.26599703 15922
ONEWEB-0118             
1 47264U 20100G   21098.50001157 -.00001097  00000-0 -24135-2 0  9991
2 47264  87.9608   7.5600 0001849  95.7897 295.3074 13.29032096  1712
ONEWEB-0119             
1 47265U 20100H   21098.91667824 -.00039940  00000-0 -86778-1 0  9994
2 47265  87.9593   7.5374 0001629  93.6259 207.3665 13.29388408 16074
ONEWEB-0120             
1 47266U 20100J   21098.91667824 -.00041630  00000-0 -91854-1 0  9995
2 47266  87.9589   7.3544 0003550 282.0982  56.9333 13.28373486 16102
ONEWEB-0121             
1 47267U 20100K   21098.50001157 -.00000436  00000-0 -98279-3 0  9991
2 47267  87.9609   7.2287 0010827 286.1899 108.0171 13.28539816  1717
ONEWEB-0122             
1 47268U 20100L   21098.50001157 -.00001263  00000-0 -27828-2 0  9992
2 47268  87.9610   7.5489 0001372  78.6538 333.0650 13.28843664  1739
ONEWEB-0123             
1 47269U 20100M   21098.50001157 -.00001666  00000-0 -35225-2 0  9990
2 47269  87.9505   7.5761 0001047  99.8229 195.7893 13.31402079  1745
ONEWEB-0124             
1 47270U 20100N   21098.91667824 -.00038915  00000-0 -85527-1 0  9992
2 47270  87.9616   7.4895 0001576  91.9894 342.9970 13.28618530 15941
ONEWEB-0125             
1 47271U 20100P   21098.50001157 -.00000952  00000-0 -20515-2 0  9996
2 47271  87.9452   7.5375 0001580 107.5734 265.5370 13.30526826  1731
ONEWEB-0126             
1 47272U 20100Q   21098.50001157 -.00001830  00000-0 -40347-2 0  9998
2 47272  87.9615   7.6278 0001686  89.6532 197.1063 13.28581687  1719
ONEWEB-0127             
1 47273U 20100R   21098.50001157 -.00001219  00000-0 -26812-2 0  9991
2 47273  87.9598   7.5667 0001492  87.7153 316.7040 13.29005279  1706
ONEWEB-0128             
1 47274U 20100S   21098.50001157 -.00002436  00000-0 -52612-2 0  9991
2 47274  87.9520   7.5352 0001490  91.6476 137.5617 13.29846806  1712
ONEWEB-0129             
1 47275U 20100T   21098.50001157  .00011343  00000-0  24785-1 0  9996
2 47275  87.9615   7.3394 0005820 288.8865   8.8831 13.28526022  1751
ONEWEB-0130             
1 47276U 20100U   21098.91667824  .00000013  00000-0  00000+0 0  9995
2 47276  87.9533   7.4401 0001740  97.3304 151.5015 13.27442729 16036
ONEWEB-0131             
1 47277U 20100V   21098.50001157 -.00002172  00000-0 -47738-2 0  9994
2 47277  87.9596   7.4680 0001202  78.2153 170.0566 13.28723638  1738
ONEWEB-0132             
1 47278U 20100W   21098.50001157 -.00001139  00000-0 -25276-2 0  9990
2 47278  87.9641   7.6215 0001772  91.9993 287.0590 13.28433949  1797
ONEWEB-0133             
1 47279U 20100X   21098.91667824 -.00033714  00000-0 -74265-1 0  9990
2 47279  87.9624   7.3870 0008067 265.1436 277.5626 13.28419990 16110
ONEWEB-0134             
1 47280U 20100Y   21098.50001157  .00021568  00000-0  46914-1 0  9990
2 47280  87.9609   7.5607 0000344 319.5193  35.2510 13.28793041  1789
ONEWEB-0135             
1 47281U 20100Z   21098.50001157 -.00002799  00000-0 -61723-2 0  9994
2 47281  87.9615   7.5420 0000851  92.0121 222.5157 13.28409820  1762
ONEWEB-0136             
1 47282U 20100AA  21098.91667824 -.00040576  00000-0 -88609-1 0  9995
2 47282  87.9577   7.3775 0001395  91.9835 166.5360 13.29055602 16041
ONEWEB-0137             
1 47283U 20100AB  21098.50001157 -.00002572  00000-0 -56596-2 0  9997
2 47283  87.9626   7.6291 0002069  97.5060  51.8124 13.28591228  1736
ONEWEB-0138             
1 47284U 20100AC  21098.91667824  .00000013  00000-0  00000+0 0  9994
2 47284  87.9823   7.4979 0010170 275.8575 287.2921 13.30043472 16025
ONEWEB-0139             
1 47285U 20100AD  21098.50001157 -.00002502  00000-0 -54852-2 0  9995
2 47285  87.9622   7.5617 0000982  76.6655  80.7815 13.28828843  1717
ONEWEB-0140             
1 47286U 20100AE  21098.91667824 -.00039210  00000-0 -86151-1 0  9992
2 47286  87.9625   7.4815 0001372  82.8944 247.5445 13.28640002 16069
ONEWEB-0141             
1 47287U 20100AF  21098.50001157  .00025104  00000-0  54664-1 0  9998
2 47287  87.9637   7.6069 0001160 250.5478 119.3183 13.28700209  1736
ONEWEB-0142             
1 47288U 20100AG  21098.91667824 -.00040025  00000-0 -87588-1 0  9995
2 47288  87.9615   7.5580 0001396  87.7330 209.0505 13.28912628 16054
ONEWEB-0143             
1 47289U 20100AH  21098.50001157 -.00002406  00000-0 -52924-2 0  9990
2 47289  87.9627   7.3574 0000584  24.7602  69.2789 13.28621964  1818
ONEWEB-0144             
1 47290U 20100AJ  21098.91667824 -.00038748  00000-0 -85143-1 0  9992
2 47290  87.9233   7.4324 0001559 100.2525 320.7057 13.28630961 15954
ONEWEB-0145             
1 47291U 20100AK  21098.83335648 -.00040042  00000-0 -87560-1 0  9995
2 47291  87.9589   7.4798 0001740  82.4516 147.3071 13.28961491 16132
ONEWEB-0146             
1 47292U 20100AL  21098.91667824 -.00038800  00000-0 -85427-1 0  9998
2 47292  87.9614   7.5125 0001452 102.2389 321.1745 13.28498745 16043
ONEWEB-0147             
1 47293U 20100AM  21098.50001157 -.00001252  00000-0 -27733-2 0  9993
2 47293  87.9632   7.5622 0005868 274.2477 140.0139 13.28496800  1756
ONEWEB-0115             
1 48042U 21025A   21098.83335648 -.00060531  00000-0 -14839-2 0  9992
2 48042  87.3979 344.9297 0004939 208.9892  53.9211 15.41004668  3531
ONEWEB-0152             
1 48043U 21025B   21098.83335648 -.00058925  00000-0 -14996-2 0  9991
2 48043  87.3962 344.9371 0007823 193.8783  12.3203 15.39840476  3524
ONEWEB-0153             
1 48044U 21025C   21098.41668981 -.00017827  00000-0 -46519-3 0  9998
2 48044  87.3964 345.0956 0007264 224.1525 143.7543 15.38971397  1765
ONEWEB-0154             
1 48045U 21025D   21098.83335648 -.00061375  00000-0 -16499-2 0  9996
2 48045  87.3949 344.9474 0005006 201.9098 273.7803 15.38189427  3537
ONEWEB-0116             
1 48046U 21025E   21098.83335648 -.00060359  00000-0 -14850-2 0  9997
2 48046  87.3949 344.9281 0004606 204.8662  52.4318 15.40897210  3530
ONEWEB-0150             
1 48047U 21025F   21098.83335648 -.00059290  00000-0 -14870-2 0  9992
2 48047  87.3964 344.9330 0006633 185.0550  40.7992 15.40297065  3520
ONEWEB-0107             
1 48048U 21025G   21098.83335648 -.00059864  00000-0 -15630-2 0  9995
2 48048  87.3944 344.9377 0007556 219.6186 301.6901 15.39063217  3532
ONEWEB-0101             
1 48049U 21025H   21098.41668981 -.00017428  00000-0 -47275-3 0  9990
2 48049  87.3956 345.1023 0006092 191.7020 119.6556 15.37786434  1787
